GLOBALSTAR M035         
1 25851U 99037A   25047.51474257  .00000008  00000+0  27124-2 0  9997
2 25851  51.9985 324.0801 0013752 143.5879  27.0249 11.04536145 82928
GLOBALSTAR M032         
1 25852U 99037B   25047.56657247  .00000029  00000+0  30601-2 0  9992
2 25852  51.9939 157.4789 0010411 326.8457  33.1690 11.19057704121284
GLOBALSTAR M051         
1 25853U 99037C   25047.46225335 -.00000029  00000+0  10660-2 0  9995
2 25853  51.9831 332.1293 0001254  15.7679 344.3170 11.42202557118597
GLOBALSTAR M030         
1 25854U 99037D   25047.54106912 -.00000129  00000+0 -11410-2 0  9990
2 25854  51.9869 145.7126 0004132 184.3515 175.7266 11.55102216136106
GLOBALSTAR M048         
1 25872U 99041A   25047.36752314 -.00000070  00000+0 -28982-5 0  9998
2 25872  51.9345 262.7216 0012990 340.4866 190.3916 11.33854642111279
GLOBALSTAR M026         
1 25873U 99041B   25047.39152123 -.00000064  00000+0  51836-5 0  9990
2 25873  52.0007  83.5809 0001631  72.2876 300.6219 11.06828339135110
GLOBALSTAR M043         
1 25874U 99041C   25047.61879850 -.00000104  00000+0 -10708-2 0  9995
2 25874  51.9439   4.9610 0013444 106.4787  63.8291 11.25689274109293
GLOBALSTAR M028         
1 25875U 99041D   25047.54726872 -.00000091  00000+0  62728-4 0  9998
2 25875  51.9607 192.7896 0063759 168.7276 191.5029 12.50577109175081
